[{"OBJECT_NAME":"STARLINK-4489","OBJECT_ID":"2022-101R","EPOCH":"2026-03-09T10:20:27.906720","MEAN_MOTION":15.08827472,"ECCENTRICITY":0.00014214,"INCLINATION":53.2174,"RA_OF_ASC_NODE":65.2842,"ARG_OF_PERICENTER":89.8496,"MEAN_ANOMALY":270.2659,"EPHEMERIS_TYPE":0,"CLASSIFICATION_TYPE":"U","NORAD_CAT_ID":53542,"ELEMENT_SET_NO":999,"REV_AT_EPOCH":19695,"BSTAR":-4.7094544e-5,"MEAN_MOTION_DOT":-1.037e-5,"MEAN_MOTION_DDOT":0},{"OBJECT_NAME":"PSLV DEB","OBJECT_ID":"2001-049CY","EPOCH":"2026-03-09T18:20:37.296384","MEAN_MOTION":15.08389698,"ECCENTRICITY":0.00190632,"INCLINATION":97.9861,"RA_OF_ASC_NODE":156.2845,"ARG_OF_PERICENTER":340.3269,"MEAN_ANOMALY":19.722,"EPHEMERIS_TYPE":0,"CLASSIFICATION_TYPE":"U","NORAD_CAT_ID":27152,"ELEMENT_SET_NO":999,"REV_AT_EPOCH":30598,"BSTAR":0.00053695108,"MEAN_MOTION_DOT":8.318e-5,"MEAN_MOTION_DDOT":0}]
